{"type": "FeatureCollection", "features": [ {"type": "Feature", "properties": {"norad_id": 67062, "name": "HULIANWANG DIGUI 16D", "group": "last-30-days", "lat": -1.832223917686775, "lon": 4.052612513120078, "alt_km": 807.5907466799144, "timestamp": "2025-12-14T07:33:18.190156+00:00", "meta": {"OBJECT_NAME": "HULIANWANG DIGUI 16D", "OBJECT_ID": "2025-295D", "EPOCH": "2025-12-12T05:06:24.477120", "MEAN_MOTION": 14.25916921, "ECCENTRICITY": 0.00124974, "INCLINATION": 50.0052, "RA_OF_ASC_NODE": 14.4731, "ARG_OF_PERICENTER": 251.2247, "MEAN_ANOMALY": 108.7311, "EPHEMERIS_TYPE": 0, "CLASSIFICATION_TYPE": "U", "NORAD_CAT_ID": 67062, "ELEMENT_SET_NO": 999, "REV_AT_EPOCH": 4, "BSTAR": 3.753899e-06, "MEAN_MOTION_DOT": -1.51e-06, "MEAN_MOTION_DDOT": 0}, "tle": {"line1": "1 67062U 25295D   25346.21278330 -.00000151  00000+0  37539-5 0  9999", "line2": "2 67062  50.0052  14.4731 0012497 251.2247 108.7311 14.25916921    46"}}, "geometry": {"type": "Point", "coordinates": [4.052612513120078, -1.832223917686775]}}, {"type": "Feature", "properties": {"norad_id": 67064, "name": "HULIANWANG DIGUI 16F", "group": "last-30-days", "lat": 4.29995395318303, "lon": 9.181481780153165, "alt_km": 805.6090075513112, "timestamp": "2025-12-14T07:33:18.190166+00:00", "meta": {"OBJECT_NAME": "HULIANWANG DIGUI 16F", "OBJECT_ID": "2025-295F", "EPOCH": "2025-12-12T05:06:22.414752", "MEAN_MOTION": 14.26957674, "ECCENTRICITY": 0.00149026, "INCLINATION": 50.0027, "RA_OF_ASC_NODE": 14.4596, "ARG_OF_PERICENTER": 247.8107, "MEAN_ANOMALY": 112.1227, "EPHEMERIS_TYPE": 0, "CLASSIFICATION_TYPE": "U", "NORAD_CAT_ID": 67064, "ELEMENT_SET_NO": 999, "REV_AT_EPOCH": 4, "BSTAR": 2.6251967e-05, "MEAN_MOTION_DOT": -9.6e-07, "MEAN_MOTION_DDOT": 0}, "tle": {"line1": "1 67064U 25295F   25346.21275943 -.00000096  00000+0  26252-4 0  9995", "line2": "2 67064  50.0027  14.4596 0014902 247.8107 112.1227 14.26957674    44"}}, "geometry": {"type": "Point", "coordinates": [9.181481780153165, 4.29995395318303]}}, {"type": "Feature", "properties": {"norad_id": 67066, "name": "HULIANWANG DIGUI 16H", "group": "last-30-days", "lat": 1.344461724994758, "lon": 6.699871186477957, "alt_km": 806.2844305566014, "timestamp": "2025-12-14T07:33:18.190176+00:00", "meta": {"OBJECT_NAME": "HULIANWANG DIGUI 16H", "OBJECT_ID": "2025-295H", "EPOCH": "2025-12-12T05:06:20.088000", "MEAN_MOTION": 14.26429655, "ECCENTRICITY": 0.00114905, "INCLINATION": 50.0029, "RA_OF_ASC_NODE": 14.4606, "ARG_OF_PERICENTER": 248.6611, "MEAN_ANOMALY": 111.3077, "EPHEMERIS_TYPE": 0, "CLASSIFICATION_TYPE": "U", "NORAD_CAT_ID": 67066, "ELEMENT_SET_NO": 999, "REV_AT_EPOCH": 4, "BSTAR": 2.4353642e-05, "MEAN_MOTION_DOT": -1.01e-06, "MEAN_MOTION_DDOT": 0}, "tle": {"line1": "1 67066U 25295H   25346.21273250 -.00000101  00000+0  24354-4 0  9994", "line2": "2 67066  50.0029  14.4606 0011490 248.6611 111.3077 14.26429655    45"}}, "geometry": {"type": "Point", "coordinates": [6.699871186477957, 1.344461724994758]}}, {"type": "Feature", "properties": {"norad_id": 67067, "name": "HULIANWANG DIGUI 16J", "group": "last-30-days", "lat": 1.0174794385185664, "lon": 6.435146611178907, "alt_km": 805.7481553076286, "timestamp": "2025-12-14T07:33:18.190186+00:00", "meta": {"OBJECT_NAME": "HULIANWANG DIGUI 16J", "OBJECT_ID": "2025-295J", "EPOCH": "2025-12-12T05:06:18.555264", "MEAN_MOTION": 14.26361638, "ECCENTRICITY": 0.00104901, "INCLINATION": 50.0044, "RA_OF_ASC_NODE": 14.4694, "ARG_OF_PERICENTER": 253.0387, "MEAN_ANOMALY": 106.9378, "EPHEMERIS_TYPE": 0, "CLASSIFICATION_TYPE": "U", "NORAD_CAT_ID": 67067, "ELEMENT_SET_NO": 999, "REV_AT_EPOCH": 4, "BSTAR": 6.475965e-06, "MEAN_MOTION_DOT": -1.45e-06, "MEAN_MOTION_DDOT": 0}, "tle": {"line1": "1 67067U 25295J   25346.21271476 -.00000145  00000+0  64760-5 0  9997", "line2": "2 67067  50.0044  14.4694 0010490 253.0387 106.9378 14.26361638    49"}}, "geometry": {"type": "Point", "coordinates": [6.435146611178907, 1.0174794385185664]}}, {"type": "Feature", "properties": {"norad_id": 67070, "name": "2025-296B", "group": "last-30-days", "lat": -23.823625565419874, "lon": -91.89792612418135, "alt_km": 798.3202449330493, "timestamp": "2025-12-14T07:33:18.190198+00:00", "meta": {"OBJECT_NAME": "2025-296B", "OBJECT_ID": "2025-296B", "EPOCH": "2025-12-13T01:08:41.999712", "MEAN_MOTION": 14.29360286, "ECCENTRICITY": 0.001167, "INCLINATION": 49.96, "RA_OF_ASC_NODE": 71.6976, "ARG_OF_PERICENTER": 307.015, "MEAN_ANOMALY": 220.3788, "EPHEMERIS_TYPE": 0, "CLASSIFICATION_TYPE": "U", "NORAD_CAT_ID": 67070, "ELEMENT_SET_NO": 999, "REV_AT_EPOCH": 0, "BSTAR": 0, "MEAN_MOTION_DOT": -1.62e-06, "MEAN_MOTION_DDOT": 0}, "tle": {"line1": "1 67070U 25296B   25347.04770833 -.00000162  00000+0  00000+0 0  9995", "line2": "2 67070  49.9600  71.6976 0011670 307.0150 220.3788 14.29360286    08"}}, "geometry": {"type": "Point", "coordinates": [-91.89792612418135, -23.823625565419874]}}, {"type": "Feature", "properties": {"norad_id": 67071, "name": "KZ-11 R/B", "group": "last-30-days", "lat": -16.312223554161058, "lon": -67.31829324783828, "alt_km": 1032.0434112961966, "timestamp": "2025-12-14T07:33:18.190208+00:00", "meta": {"OBJECT_NAME": "KZ-11 R/B", "OBJECT_ID": "2025-296C", "EPOCH": "2025-12-13T03:57:12.269376", "MEAN_MOTION": 14.41614344, "ECCENTRICITY": 0.08603054, "INCLINATION": 41.3405, "RA_OF_ASC_NODE": 99.1629, "ARG_OF_PERICENTER": 320.0027, "MEAN_ANOMALY": 34.035, "EPHEMERIS_TYPE": 0, "CLASSIFICATION_TYPE": "U", "NORAD_CAT_ID": 67071, "ELEMENT_SET_NO": 999, "REV_AT_EPOCH": 2, "BSTAR": 0.00012972566, "MEAN_MOTION_DOT": 0.00801494, "MEAN_MOTION_DDOT": 4.646094e-06}, "tle": {"line1": "1 67071U 25296C   25347.16472534  .00801494  46461-5  12973-3 0  9995", "line2": "2 67071  41.3405  99.1629 0860305 320.0027  34.0350 14.41614344    21"}}, "geometry": {"type": "Point", "coordinates": [-67.31829324783828, -16.312223554161058]}}]}